$$SOE
2460721.500000000, A.D. 2025-Feb-15 00:00:00.0000, 3.425618927736068E+08, -2.995031159808560E+08, 9.361199154899108E+07,
2460728.500000000, A.D. 2025-Feb-22 00:00:00.0000, 3.491139696257546E+08, -2.914614303934527E+08, 9.412968158340618E+07,
2460735.500000000, A.D. 2025-Mar-01 00:00:00.0000, 3.554968665466364E+08, -2.832785574605703E+08, 9.460175296136720E+07,
2460742.500000000, A.D. 2025-Mar-08 00:00:00.0000, 3.617073537626661E+08, -2.749583508770729E+08, 9.502793937975587E+07,
2460749.500000000, A.D. 2025-Mar-15 00:00:00.0000, 3.677422893729039E+08, -2.665047419066072E+08, 9.540799858193283E+07,
2460756.500000000, A.D. 2025-Mar-22 00:00:00.0000, 3.735986193525893E+08, -2.579217367092062E+08, 9.574171282407494E+07,
2460763.500000000, A.D. 2025-Mar-29 00:00:00.0000, 3.792733788629134E+08, -2.492134158498546E+08, 9.602888901363993E+07,
2460770.500000000, A.D. 2025-Apr-05 00:00:00.0000, 3.847636951893618E+08, -2.403839328508653E+08, 9.626935874570499E+07,
2460777.500000000, A.D. 2025-Apr-12 00:00:00.0000, 3.900667903804038E+08, -2.314375116862213E+08, 9.646297842192851E+07,
2460784.500000000, A.D. 2025-Apr-19 00:00:00.0000, 3.951799833968316E+08, -2.223784441016323E+08, 9.660962939685971E+07,
2460791.500000000, A.D. 2025-Apr-26 00:00:00.0000, 4.001006920408314E+08, -2.132110869656635E+08, 9.670921810962442E+07,
2460798.500000000, A.D. 2025-May-03 00:00:00.0000, 4.048264347760182E+08, -2.039398596351224E+08, 9.676167619173774E+07,
2460805.500000000, A.D. 2025-May-10 00:00:00.0000, 4.093548324647280E+08, -1.945692413286077E+08, 9.676696054884230E+07,
2460812.500000000, A.D. 2025-May-17 00:00:00.0000, 4.136836100569718E+08, -1.851037685520734E+08, 9.672505340938298E+07,
2460819.500000000, A.D. 2025-May-24 00:00:00.0000, 4.178105984023946E+08, -1.755480326336560E+08, 9.663596231939438E+07,
2460826.500000000, A.D. 2025-May-31 00:00:00.0000, 4.217337366005791E+08, -1.659066770590084E+08, 9.649972007006000E+07,
2460833.500000000, A.D. 2025-Jun-07 00:00:00.0000, 4.254510744877400E+08, -1.561843934046570E+08, 9.631638469359271E+07,
2460840.500000000, A.D. 2025-Jun-14 00:00:00.0000, 4.289607728952066E+08, -1.463859165404080E+08, 9.608603969085275E+07,
2460847.500000000, A.D. 2025-Jun-21 00:00:00.0000, 4.322611028944968E+08, -1.365160223772101E+08, 9.580879411187981E+07,
2460854.500000000, A.D. 2025-Jun-28 00:00:00.0000, 4.353504471537230E+08, -1.265795263992724E+08, 9.548478234577489E+07,
2460861.500000000, A.D. 2025-Jul-05 00:00:00.0000, 4.382273018860283E+08, -1.165812808268272E+08, 9.511416393469328E+07,
2460868.500000000, A.D. 2025-Jul-12 00:00:00.0000, 4.408902781970336E+08, -1.065261712178380E+08, 9.469712345497368E+07,
2460875.500000000, A.D. 2025-Jul-19 00:00:00.0000, 4.433381030192006E+08, -9.641911308621719E+07, 9.423387040071580E+07,
2460882.500000000, A.D. 2025-Jul-26 00:00:00.0000, 4.455696198423922E+08, -8.626504859534109E+07, 9.372463904613766E+07,
2460889.500000000, A.D. 2025-Aug-02 00:00:00.0000, 4.475837893065197E+08, -7.606894330787529E+07, 9.316968828338230E+07,
2460896.500000000, A.D. 2025-Aug-09 00:00:00.0000, 4.493796896808153E+08, -6.583578301013012E+07, 9.256930143375255E+07,
2460903.500000000, A.D. 2025-Aug-16 00:00:00.0000, 4.509565173075817E+08, -5.557057067867161E+07, 9.192378602137589E+07,
2460910.500000000, A.D. 2025-Aug-23 00:00:00.0000, 4.523135873028913E+08, -4.527832357755890E+07, 9.123347348443736E+07,
2460917.500000000, A.D. 2025-Aug-30 00:00:00.0000, 4.534503348419331E+08, -3.496406977613628E+07, 9.049871885219859E+07,
2460924.500000000, A.D. 2025-Sep-06 00:00:00.0000, 4.543663156107392E+08, -2.463284308993709E+07, 8.971990060018145E+07,
2460931.500000000, A.D. 2025-Sep-13 00:00:00.0000, 4.550612037552265E+08, -1.428967893169384E+07, 8.889742063510261E+07,
2460938.500000000, A.D. 2025-Sep-20 00:00:00.0000, 4.555347906005614E+08, -3.939612721986029E+06, 8.803170397511956E+07,
2460945.500000000, A.D. 2025-Sep-27 00:00:00.0000, 4.557869851977046E+08, 6.412322248738486E+06, 8.712319828213802E+07,
2460952.500000000, A.D. 2025-Oct-04 00:00:00.0000, 4.558178146802005E+08, 1.676109804356582E+07, 8.617237347544970E+07,
2460959.500000000, A.D. 2025-Oct-11 00:00:00.0000, 4.556274240583594E+08, 2.710169544230640E+07, 8.517972138450386E+07,
2460966.500000000, A.D. 2025-Oct-18 00:00:00.0000, 4.552160757356585E+08, 3.742910716740075E+07, 8.414575539303613E+07,
2460973.500000000, A.D. 2025-Oct-25 00:00:00.0000, 4.545841488884063E+08, 4.773834098094010E+07, 8.307101006339207E+07,
2460980.500000000, A.D. 2025-Nov-01 00:00:00.0000, 4.537321387499711E+08, 5.802442266564925E+07, 8.195604073948659E+07,
2460987.500000000, A.D. 2025-Nov-08 00:00:00.0000, 4.526606558362885E+08, 6.828239885564648E+07, 8.080142312346363E+07,
2460994.500000000, A.D. 2025-Nov-15 00:00:00.0000, 4.513704252628208E+08, 7.850733965533614E+07, 7.960775280840671E+07,
2461001.500000000, A.D. 2025-Nov-22 00:00:00.0000, 4.498622865573919E+08, 8.869434126298144E+07, 7.837564474845202E+07,
2461008.500000000, A.D. 2025-Nov-29 00:00:00.0000, 4.481371938160570E+08, 9.883852973098737E+07, 7.710573277296808E+07,
2461015.500000000, A.D. 2025-Dec-06 00:00:00.0000, 4.461962139260649E+08, 1.089350657257126E+08, 7.579866934317303E+07,
2461022.500000000, A.D. 2025-Dec-13 00:00:00.0000, 4.440405232938800E+08, 1.189791469143630E+08, 7.445512523732945E+07,
2461029.500000000, A.D. 2025-Dec-20 00:00:00.0000, 4.416714065738626E+08, 1.289660089983192E+08, 7.307578892801563E+07,
2461036.500000000, A.D. 2025-Dec-27 00:00:00.0000, 4.390902563244754E+08, 1.388909279818026E+08, 7.166136596172082E+07,
2461043.500000000, A.D. 2026-Jan-03 00:00:00.0000, 4.362985721346593E+08, 1.487492230589613E+08, 7.021257842490345E+07,
2461050.500000000, A.D. 2026-Jan-10 00:00:00.0000, 4.332979593327151E+08, 1.585362594391578E+08, 6.873016443178275E+07,
2461057.500000000, A.D. 2026-Jan-17 00:00:00.0000, 4.300901275128886E+08, 1.682474510176815E+08, 6.721487760586485E+07,
2461064.500000000, A.D. 2026-Jan-24 00:00:00.0000, 4.266768889602445E+08, 1.778782629135749E+08, 6.566748655074091E+07,
2461071.500000000, A.D. 2026-Jan-31 00:00:00.0000, 4.230601570000594E+08, 1.874242138664586E+08, 6.408877430827712E+07,
2461078.500000000, A.D. 2026-Feb-07 00:00:00.0000, 4.192419443363147E+08, 1.968808784345440E+08, 6.247953779482906E+07,
2461085.500000000, A.D. 2026-Feb-14 00:00:00.0000, 4.152243616359084E+08, 2.062438889780034E+08, 6.084058719200617E+07,
2461092.500000000, A.D. 2026-Feb-21 00:00:00.0000, 4.110096167495264E+08, 2.155089380033401E+08, 5.917274530429983E+07,
2461099.500000000, A.D. 2026-Feb-28 00:00:00.0000, 4.066000134859616E+08, 2.246717820204617E+08, 5.747684707761401E+07,
2461106.500000000, A.D. 2026-Mar-07 00:00:00.0000, 4.019979478835264E+08, 2.337282449624959E+08, 5.575373930901700E+07,
2461113.500000000, A.D. 2026-Mar-14 00:00:00.0000, 3.972059047592492E+08, 2.426742188347539E+08, 5.400428010358034E+07,
2461120.500000000, A.D. 2026-Mar-21 00:00:00.0000, 3.922264563210747E+08, 2.515056644875988E+08, 5.222933815157376E+07,
2461127.500000000, A.D. 2026-Mar-28 00:00:00.0000, 3.870622608336246E+08, 2.602186135401611E+08, 5.042979209437184E+07,
2461134.500000000, A.D. 2026-Apr-04 00:00:00.0000, 3.817160607349041E+08, 2.688091704895711E+08, 4.860652995628971E+07,
2461141.500000000, A.D. 2026-Apr-11 00:00:00.0000, 3.761906804806312E+08, 2.772735146468406E+08, 4.676044858907013E+07,
2461148.500000000, A.D. 2026-Apr-18 00:00:00.0000, 3.704890242795119E+08, 2.856079018936740E+08, 4.489245311527410E+07,
2461155.500000000, A.D. 2026-Apr-25 00:00:00.0000, 3.646140737698887E+08, 2.938086662752733E+08, 4.300345636881898E+07,
2461162.500000000, A.D. 2026-May-02 00:00:00.0000, 3.585688856728439E+08, 3.018722213993182E+08, 4.109437832836699E+07,
2461169.500000000, A.D. 2026-May-09 00:00:00.0000, 3.523565895502653E+08, 3.097950615745996E+08, 3.916614552742063E+07,
2461176.500000000, A.D. 2026-May-16 00:00:00.0000, 3.459803860495613E+08, 3.175737628274721E+08, 3.721969041830584E+07,
2461183.500000000, A.D. 2026-May-23 00:00:00.0000, 3.394435456901268E+08, 3.252049848175790E+08, 3.525595076907544E+07,
2461190.500000000, A.D. 2026-May-30 00:00:00.0000, 3.327494061140692E+08, 3.326854739710370E+08, 3.327586931010911E+07,
2461197.500000000, A.D. 2026-Jun-06 00:00:00.0000, 3.259013674850847E+08, 3.400120645592604E+08, 3.128039339264064E+07,
2461204.500000000, A.D. 2026-Jun-13 00:00:00.0000, 3.189028897060732E+08, 3.471816779245067E+08, 2.927047433987641E+07,
2461211.500000000, A.D. 2026-Jun-20 00:00:00.0000, 3.117574909575518E+08, 3.541913227776913E+08, 2.724706677572931E+07,
2461218.500000000, A.D. 2026-Jun-27 00:00:00.0000, 3.044687458599247E+08, 3.610380962285388E+08, 2.521112805916533E+07,
2461225.500000000, A.D. 2026-Jul-04 00:00:00.0000, 2.970402832614715E+08, 3.677191847741050E+08, 2.316361776100904E+07,
2461232.500000000, A.D. 2026-Jul-11 00:00:00.0000, 2.894757839082993E+08, 3.742318651148173E+08, 2.110549714928655E+07,
2461239.500000000, A.D. 2026-Jul-18 00:00:00.0000, 2.817789780912658E+08, 3.805735048248012E+08, 1.903772867682034E+07,
2461246.500000000, A.D. 2026-Jul-25 00:00:00.0000, 2.739536432964767E+08, 3.867415628802735E+08, 1.696127546917897E+07,
2461253.500000000, A.D. 2026-Aug-01 00:00:00.0000, 2.660036019094933E+08, 3.927335899990765E+08, 1.487710080478692E+07,
2461260.500000000, A.D. 2026-Aug-08 00:00:00.0000, 2.579327191901446E+08, 3.985472287569884E+08, 1.278616756474945E+07,
2461267.500000000, A.D. 2026-Aug-15 00:00:00.0000, 2.497449019353868E+08, 4.041802139330383E+08, 1.068943765131614E+07,
2461274.500000000, A.D. 2026-Aug-22 00:00:00.0000, 2.414440970717091E+08, 4.096303743058681E+08, 8.587871544632673E+06,
2461281.500000000, A.D. 2026-Aug-29 00:00:00.0000, 2.330342878883483E+08, 4.148956345278975E+08, 6.482428095705867E+06,
2461288.500000000, A.D. 2026-Sep-05 00:00:00.0000, 2.245194900450846E+08, 4.199740142120336E+08, 4.374064126053184E+06,
$$EOE